TIANQI-15               
1 49027U 21065B   26068.81163741  .00006722  00000+0  41179-3 0  9990
2 49027  34.9979 108.2420 0007067 250.7766 109.2180 15.09508085254244
STARLINK-5148           
1 53978U 22125Q   26068.69075682 -.00000369  00000+0 -51002-5 0  9991
2 53978  53.2168 219.0316 0001398  87.1186 272.9966 15.08837461189397
